NAVSTAR 48 (USA 151)    
1 26407U 00040A   26136.37777748  .00000045  00000+0  00000+0 0  9998
2 26407  54.8567 216.4258 0121397 302.3525  54.0583  2.00557366189307
NAVSTAR 51 (USA 166)    
1 27663U 03005A   26136.69087609  .00000045  00000+0  00000+0 0  9992
2 27663  54.8875 216.2203 0148004  53.0144 305.0193  2.00562184170673
NAVSTAR 54 (USA 177)    
1 28190U 04009A   26136.46753102 -.00000033  00000+0  00000+0 0  9994
2 28190  54.8572 276.9681 0114684 171.6707 178.9790  2.00555636162300
NAVSTAR 56 (USA 180)    
1 28474U 04045A   26136.15943391 -.00000059  00000+0  00000+0 0  9994
2 28474  55.1548 326.1858 0169887 315.5685 237.6800  2.00554333157789
NAVSTAR 57 (USA 183)    
1 28874U 05038A   26136.43874447 -.00000031  00000+0  00000+0 0  9997
2 28874  54.9052 274.4581 0127706 295.9582  61.2380  2.00567768151198
NAVSTAR 58 (USA 190)    
1 29486U 06042A   26136.10317064  .00000099  00000+0  00000+0 0  9997
2 29486  54.7058 152.6126 0106160  53.7542 319.0966  2.00571613143752
NAVSTAR 59 (USA 192)    
1 29601U 06052A   26135.51120157  .00000044  00000+0  00000+0 0  9996
2 29601  54.9394 215.3015 0085823  90.5256 270.5219  2.00556297142755
NAVSTAR 60 (USA 196)    
1 32260U 07047A   26135.81598113 -.00000013  00000+0  00000+0 0  9997
2 32260  54.0724  81.3993 0165419  86.7831 275.0723  2.00556802136160
NAVSTAR 61 (USA 199)    
1 32384U 07062A   26135.88162486 -.00000033  00000+0  00000+0 0  9990
2 32384  55.0587 275.4507 0035090 163.5278  10.8819  2.00557999134866
NAVSTAR 62 (USA 201)    
1 32711U 08012A   26135.23152674  .00000107  00000+0  00000+0 0  9998
2 32711  54.4918 151.2413 0210419 247.3965 110.4178  2.00571513133099
NAVSTAR 64 (USA 206)    
1 35752U 09043A   26135.95755098 -.00000072  00000+0  00000+0 0  9991
2 35752  56.1909  28.7178 0053351  81.9404  94.4018  2.00555906122711
NAVSTAR 65 (USA 213)    
1 36585U 10022A   26135.04828097  .00000050  00000+0  00000+0 0  9990
2 36585  54.2737 209.8972 0126448  66.1124 291.3238  2.00560732116921
NAVSTAR 67 (USA 239)    
1 38833U 12053A   26136.40799872  .00000088  00000+0  00000+0 0  9994
2 38833  53.5795 144.9011 0178706  65.3415 296.5469  2.00566894 98800
NAVSTAR 68 (USA 242)    
1 39166U 13023A   26135.27691818 -.00000031  00000+0  00000+0 0  9996
2 39166  54.5310 270.3138 0141799  50.8427 310.3815  2.00563577 95220
NAVSTAR 69 (USA 248)    
1 39533U 14008A   26136.27529849  .00000093  00000+0  00000+0 0  9990
2 39533  53.6486 150.6212 0084103 230.6686 128.6310  2.00557686 89042
NAVSTAR 70 (USA 251)    
1 39741U 14026A   26136.05219107 -.00000059  00000+0  00000+0 0  9993
2 39741  56.5133 332.7685 0038578 326.8704  32.9134  2.00563256 87897
NAVSTAR 71 (USA 256)    
1 40105U 14045A   26134.14895784  .00000019  00000+0  00000+0 0  9994
2 40105  55.3318  89.8204 0032082 118.7363 241.5584  2.00556087 85399
NAVSTAR 72 (USA 258)    
1 40294U 14068A   26136.51440009 -.00000069  00000+0  00000+0 0  9993
2 40294  56.9666  32.1752 0066102  69.4636 291.2799  2.00574183 84571
NAVSTAR 73 (USA 260)    
1 40534U 15013A   26136.15188545  .00000059  00000+0  00000+0 0  9993
2 40534  53.1709 205.5027 0109015  40.0329 320.8482  2.00553250 81185
NAVSTAR 74 (USA 262)    
1 40730U 15033A   26135.31379536 -.00000030  00000+0  00000+0 0  9992
2 40730  54.0093 268.4414 0115002  30.0711 330.5578  2.00557884 79339
NAVSTAR 75 (USA 265)    
1 41019U 15062A   26136.36827077 -.00000069  00000+0  00000+0 0  9991
2 41019  56.9389  32.0372 0111327 231.3564 127.6780  2.00566892 77196
NAVSTAR 76 (USA 266)    
1 41328U 16007A   26135.95855546  .00000007  00000+0  00000+0 0  9991
2 41328  55.5050  90.7367 0096080 247.2677 111.6805  2.00553157 75192
NAVSTAR 77 (USA 289)    
1 43873U 18109A   26136.60168617  .00000009  00000+0  00000+0 0  9994
2 43873  55.6637  93.4324 0037979 198.6845 159.0475  2.00560026 54438
NAVSTAR 78 (USA 293)    
1 44506U 19056A   26135.98166581 -.00000060  00000+0  00000+0 0  9996
2 44506  55.6526 332.4228 0060472 197.4166 335.4017  2.00569160 49428
NAVSTAR 79 (USA 304)    
1 45854U 20041A   26136.09318970 -.00000070  00000+0  00000+0 0  9994
2 45854  56.6497  30.1892 0062712 204.8386 348.2040  2.00559119 43399
NAVSTAR 80 (USA 309)    
1 46826U 20078A   26135.59868263  .00000049  00000+0  00000+0 0  9998
2 46826  53.9843 212.1007 0072103 206.2667 325.0236  2.00564727 40856
NAVSTAR 81 (USA 319)    
1 48859U 21054A   26136.34660045 -.00000063  00000+0  00000+0 0  9990
2 48859  55.1883 333.7395 0024546 229.1549 308.0711  2.00570828 36115
NAVSTAR 82 (USA 343)    
1 55268U 23009A   26136.54568412  .00000092  00000+0  00000+0 0  9992
2 55268  55.1176 149.7626 0006007 315.0109  43.8407  2.00573591 24600
NAVSTAR 83 (USA 440)    
1 62339U 24242A   26136.41882243 -.00000065  00000+0  00000+0 0  9997
2 62339  54.8633 335.4693 0017135   3.3978 346.4178  2.00570725 10613
NAVSTAR 84 (USA 545)    
1 64202U 25116A   26131.73938987 -.00000072  00000+0  00000+0 0  9994
2 64202  55.2115  32.5982 0008550 334.4876  58.4969  2.00578431  7140
NAVSTAR 85 (USA 581)    
1 67588U 26017A   26133.29810109  .00000027  00000+0  00000+0 0  9992
2 67588  55.0667  90.1549 0023003 255.4228 104.2985  2.00571815430914
